[{"OBJECT_NAME":"KUIPER-00261","OBJECT_ID":"2025-301AB","EPOCH":"2026-03-09T22:00:01.999584","MEAN_MOTION":14.84563292,"ECCENTRICITY":0.00102753,"INCLINATION":51.9001,"RA_OF_ASC_NODE":69.3185,"ARG_OF_PERICENTER":68.6185,"MEAN_ANOMALY":64.2752,"EPHEMERIS_TYPE":0,"CLASSIFICATION_TYPE":"U","NORAD_CAT_ID":67158,"ELEMENT_SET_NO":999,"REV_AT_EPOCH":496,"BSTAR":-0.0036247241,"MEAN_MOTION_DOT":-0.00031011,"MEAN_MOTION_DDOT":0},{"OBJECT_NAME":"CZ-4B DEB","OBJECT_ID":"2013-057F","EPOCH":"2026-03-09T03:59:35.491200","MEAN_MOTION":14.62993298,"ECCENTRICITY":0.0160754,"INCLINATION":74.9188,"RA_OF_ASC_NODE":336.3162,"ARG_OF_PERICENTER":85.8895,"MEAN_ANOMALY":276.0632,"EPHEMERIS_TYPE":0,"CLASSIFICATION_TYPE":"U","NORAD_CAT_ID":40533,"ELEMENT_SET_NO":999,"REV_AT_EPOCH":57882,"BSTAR":0.0010233869,"MEAN_MOTION_DOT":6.305e-5,"MEAN_MOTION_DDOT":0}]
